[{"OBJECT_NAME":"GEESAT-1 09","OBJECT_ID":"2022-058J","EPOCH":"2026-03-09T22:14:58.178400","MEAN_MOTION":14.996745,"ECCENTRICITY":0.0007116,"INCLINATION":49.9974,"RA_OF_ASC_NODE":293.7726,"ARG_OF_PERICENTER":137.6611,"MEAN_ANOMALY":222.4884,"EPHEMERIS_TYPE":0,"CLASSIFICATION_TYPE":"U","NORAD_CAT_ID":52793,"ELEMENT_SET_NO":999,"REV_AT_EPOCH":20534,"BSTAR":0.00045554765,"MEAN_MOTION_DOT":5.429e-5,"MEAN_MOTION_DDOT":0},{"OBJECT_NAME":"STARLINK-4351","OBJECT_ID":"2022-084E","EPOCH":"2026-03-09T17:06:04.691520","MEAN_MOTION":15.01258627,"ECCENTRICITY":0.00020831,"INCLINATION":97.6036,"RA_OF_ASC_NODE":130.2379,"ARG_OF_PERICENTER":87.3881,"MEAN_ANOMALY":272.7581,"EPHEMERIS_TYPE":0,"CLASSIFICATION_TYPE":"U","NORAD_CAT_ID":53193,"ELEMENT_SET_NO":999,"REV_AT_EPOCH":20033,"BSTAR":4.5803103e-5,"MEAN_MOTION_DOT":5.3e-6,"MEAN_MOTION_DDOT":0}]
